STARLINK-32296          
1 61524U 24183R   26068.47391007 -.00000565  00000+0 -69443-5 0  9997
2 61524  53.1599 143.1375 0001074  85.5353 274.5770 15.30190017 79620
TEVEL2-6                
1 63215U 25052F   26068.64958975  .00021046  00000+0  70909-3 0  9996
2 63215  97.4016 325.0381 0004769  95.6604 264.5181 15.30760889 54861
